{
  "type": "FeatureCollection",
  "features": [
    {
      "type": "Feature",
      "properties": {
        "norad_id": 41019,
        "name": "GPS BIIF-11 (PRN 10)",
        "group": "gnss",
        "lat": 38.31660627481045,
        "lon": 69.412220721793,
        "alt_km": 20471.47028015987,
        "timestamp": "2025-12-04T21:36:16.116217+00:00",
        "meta_object_name": "GPS BIIF-11 (PRN 10)",
        "meta_object_id": "2015-062A",
        "meta_epoch": "2025-12-03T20:03:13.854528",
        "meta_mean_motion": 2.0056693,
        "meta_eccentricity": 0.01105706,
        "meta_inclination": 56.8259,
        "meta_ra_of_asc_node": 38.3468,
        "meta_arg_of_pericenter": 229.69,
        "meta_mean_anomaly": 129.3913,
        "meta_ephemeris_type": 0,
        "meta_classification_type": "U",
        "meta_norad_cat_id": 41019,
        "meta_element_set_no": 999,
        "meta_rev_at_epoch": 7391,
        "meta_bstar": 0,
        "meta_mean_motion_dot": -6.5e-07,
        "meta_mean_motion_ddot": 0,
        "tle_line1": "1 41019U 15062A   25337.83557702 -.00000065  00000+0  00000+0 0  9996",
        "tle_line2": "2 41019  56.8259  38.3468 0110570 229.6900 129.3913  2.00566930 73915"
      },
      "geometry": {
        "type": "Point",
        "coordinates": [
          69.412220721793,
          38.31660627481045
        ]
      }
    },
    {
      "type": "Feature",
      "properties": {
        "norad_id": 41028,
        "name": "GSAT-15 (GAGAN/PRN 139)",
        "group": "gnss",
        "lat": 0.016450492722987712,
        "lon": 131.4810930295947,
        "alt_km": 35789.0910024369,
        "timestamp": "2025-12-04T21:36:16.116229+00:00",
        "meta_object_name": "GSAT-15 (GAGAN/PRN 139)",
        "meta_object_id": "2015-065A",
        "meta_epoch": "2025-12-04T14:10:17.052960",
        "meta_mean_motion": 1.00271688,
        "meta_eccentricity": 0.0003025,
        "meta_inclination": 0.0357,
        "meta_ra_of_asc_node": 94.9288,
        "meta_arg_of_pericenter": 139.6985,
        "meta_mean_anomaly": 145.1059,
        "meta_ephemeris_type": 0,
        "meta_classification_type": "U",
        "meta_norad_cat_id": 41028,
        "meta_element_set_no": 999,
        "meta_rev_at_epoch": 3684,
        "meta_bstar": 0,
        "meta_mean_motion_dot": -2.43e-06,
        "meta_mean_motion_ddot": 0,
        "tle_line1": "1 41028U 15065A   25338.59047515 -.00000243  00000+0  00000+0 0  9997",
        "tle_line2": "2 41028   0.0357  94.9288 0003025 139.6985 145.1059  1.00271688 36842"
      },
      "geometry": {
        "type": "Point",
        "coordinates": [
          131.4810930295947,
          0.016450492722987712
        ]
      }
    },
    {
      "type": "Feature",
      "properties": {
        "norad_id": 41174,
        "name": "GSAT0209 (GALILEO 12)",
        "group": "gnss",
        "lat": 10.445007766840734,
        "lon": 113.79915511665786,
        "alt_km": 23214.32440401002,
        "timestamp": "2025-12-04T21:36:16.116290+00:00",
        "meta_object_name": "GSAT0209 (GALILEO 12)",
        "meta_object_id": "2015-079A",
        "meta_epoch": "2025-12-01T22:43:10.411392",
        "meta_mean_motion": 1.70474306,
        "meta_eccentricity": 0.0002352,
        "meta_inclination": 55.7062,
        "meta_ra_of_asc_node": 106.6773,
        "meta_arg_of_pericenter": 357.4206,
        "meta_mean_anomaly": 2.5431,
        "meta_ephemeris_type": 0,
        "meta_classification_type": "U",
        "meta_norad_cat_id": 41174,
        "meta_element_set_no": 999,
        "meta_rev_at_epoch": 6141,
        "meta_bstar": 0,
        "meta_mean_motion_dot": 3.5e-07,
        "meta_mean_motion_ddot": 0,
        "tle_line1": "1 41174U 15079A   25335.94664828  .00000035  00000+0  00000+0 0  9990",
        "tle_line2": "2 41174  55.7062 106.6773 0002352 357.4206   2.5431  1.70474306 61412"
      },
      "geometry": {
        "type": "Point",
        "coordinates": [
          113.79915511665786,
          10.445007766840734
        ]
      }
    },
    {
      "type": "Feature",
      "properties": {
        "norad_id": 41175,
        "name": "GSAT0208 (GALILEO 11)",
        "group": "gnss",
        "lat": -44.21882360639376,
        "lon": -31.85016867214126,
        "alt_km": 23231.077550889386,
        "timestamp": "2025-12-04T21:36:16.116312+00:00",
        "meta_object_name": "GSAT0208 (GALILEO 11)",
        "meta_object_id": "2015-079B",
        "meta_epoch": "2025-12-03T08:09:32.138784",
        "meta_mean_motion": 1.70474152,
        "meta_eccentricity": 0.00019072,
        "meta_inclination": 55.7055,
        "meta_ra_of_asc_node": 106.6362,
        "meta_arg_of_pericenter": 9.6551,
        "meta_mean_anomaly": 350.3047,
        "meta_ephemeris_type": 0,
        "meta_classification_type": "U",
        "meta_norad_cat_id": 41175,
        "meta_element_set_no": 999,
        "meta_rev_at_epoch": 6185,
        "meta_bstar": 0,
        "meta_mean_motion_dot": 2.2e-07,
        "meta_mean_motion_ddot": 0,
        "tle_line1": "1 41175U 15079B   25337.33995531  .00000022  00000+0  00000+0 0  9990",
        "tle_line2": "2 41175  55.7055 106.6362 0001907   9.6551 350.3047  1.70474152 61857"
      },
      "geometry": {
        "type": "Point",
        "coordinates": [
          -31.85016867214126,
          -44.21882360639376
        ]
      }
    },
    {
      "type": "Feature",
      "properties": {
        "norad_id": 41241,
        "name": "IRNSS-1E",
        "group": "gnss",
        "lat": 32.78603965310175,
        "lon": 148.96373986687246,
        "alt_km": 35796.47004352176,
        "timestamp": "2025-12-04T21:36:16.116326+00:00",
        "meta_object_name": "IRNSS-1E",
        "meta_object_id": "2016-003A",
        "meta_epoch": "2025-12-03T17:21:12.375360",
        "meta_mean_motion": 1.00277647,
        "meta_eccentricity": 0.00219003,
        "meta_inclination": 32.8059,
        "meta_ra_of_asc_node": 62.5847,
        "meta_arg_of_pericenter": 186.7982,
        "meta_mean_anomaly": 195.4387,
        "meta_ephemeris_type": 0,
        "meta_classification_type": "U",
        "meta_norad_cat_id": 41241,
        "meta_element_set_no": 999,
        "meta_rev_at_epoch": 3612,
        "meta_bstar": 0,
        "meta_mean_motion_dot": -3.08e-06,
        "meta_mean_motion_ddot": 0,
        "tle_line1": "1 41241U 16003A   25337.72305990 -.00000308  00000+0  00000+0 0  9997",
        "tle_line2": "2 41241  32.8059  62.5847 0021900 186.7982 195.4387  1.00277647 36129"
      },
      "geometry": {
        "type": "Point",
        "coordinates": [
          148.96373986687246,
          32.78603965310175
        ]
      }
    },
    {
      "type": "Feature",
      "properties": {
        "norad_id": 41328,
        "name": "GPS BIIF-12 (PRN 32)",
        "group": "gnss",
        "lat": -8.75663460955187,
        "lon": 91.0582616412078,
        "alt_km": 20249.09793460361,
        "timestamp": "2025-12-04T21:36:16.116338+00:00",
        "meta_object_name": "GPS BIIF-12 (PRN 32)",
        "meta_object_id": "2016-007A",
        "meta_epoch": "2025-12-03T22:01:44.177952",
        "meta_mean_motion": 2.00561076,
        "meta_eccentricity": 0.00917388,
        "meta_inclination": 55.4011,
        "meta_ra_of_asc_node": 97.2072,
        "meta_arg_of_pericenter": 243.359,
        "meta_mean_anomaly": 115.6713,
        "meta_ephemeris_type": 0,
        "meta_classification_type": "U",
        "meta_norad_cat_id": 41328,
        "meta_element_set_no": 999,
        "meta_rev_at_epoch": 7192,
        "meta_bstar": 0,
        "meta_mean_motion_dot": -7e-08,
        "meta_mean_motion_ddot": 0,
        "tle_line1": "1 41328U 16007A   25337.91787243 -.00000007  00000+0  00000+0 0  9999",
        "tle_line2": "2 41328  55.4011  97.2072 0091738 243.3590 115.6713  2.00561076 71927"
      },
      "geometry": {
        "type": "Point",
        "coordinates": [
          91.0582616412078,
          -8.75663460955187
        ]
      }
    },
    {
      "type": "Feature",
      "properties": {
        "norad_id": 41330,
        "name": "COSMOS 2514 (751)",
        "group": "gnss",
        "lat": -64.6996553036656,
        "lon": -119.13685941944057,
        "alt_km": 19118.162937847523,
        "timestamp": "2025-12-04T21:36:16.116350+00:00",
        "meta_object_name": "COSMOS 2514 (751)",
        "meta_object_id": "2016-008A",
        "meta_epoch": "2025-12-03T14:29:09.873600",
        "meta_mean_motion": 2.1310246,
        "meta_eccentricity": 0.00124497,
        "meta_inclination": 65.139,
        "meta_ra_of_asc_node": 319.717,
        "meta_arg_of_pericenter": 219.8924,
        "meta_mean_anomaly": 140.017,
        "meta_ephemeris_type": 0,
        "meta_classification_type": "U",
        "meta_norad_cat_id": 41330,
        "meta_element_set_no": 999,
        "meta_rev_at_epoch": 7645,
        "meta_bstar": 0,
        "meta_mean_motion_dot": -4.2e-07,
        "meta_mean_motion_ddot": 0,
        "tle_line1": "1 41330U 16008A   25337.60358650 -.00000042  00000+0  00000+0 0  9994",
        "tle_line2": "2 41330  65.1390 319.7170 0012449 219.8924 140.0170  2.13102460 76454"
      },
      "geometry": {
        "type": "Point",
        "coordinates": [
          -119.13685941944057,
          -64.6996553036656
        ]
      }
    }
  ]
}